STARLINK-1279           
1 45360C 20019A   26180.56368056  .00100320  00000+0  45128-3 0  1806
2 45360  53.0335 266.1263 0003370 359.8241 124.7607 15.83311900    19
STARLINK-1301           
1 45361C 20019B   26180.56854167  .00115260  00000+0  47851-3 0  1804
2 45361  53.0327 268.1880 0005104 357.5349 185.4934 15.84974148    16
STARLINK-1262           
1 45366C 20019G   26180.59284722  .00021484  00000+0  60275-3 0  1805
2 45366  53.1540   4.1271 0002908 170.4047 260.4406 15.35995585    19
STARLINK-1273           
1 45367C 20019H   26180.57131944  .00036642  00000+0  44071-3 0  1809
2 45367  53.0432 336.0005 0001173 148.3605 283.9276 15.60187779    19
STARLINK-1277           
1 45369C 20019K   26180.56020833  .00022060  00000+0  18476-3 0  1803
2 45369  53.0411 328.7724 0000864  15.5461 181.9524 15.69293687    13
STARLINK-1281           
1 45370C 20019L   26180.59770833  .00016669  00000+0  45569-3 0  1801
2 45370  53.1569   3.6098 0003116 148.6650 310.7185 15.36803120    12
STARLINK-1300           
1 45374C 20019Q   26180.52826389  .00058969  00000+0  15809-2 0  1808
2 45374  53.1574   3.7563 0002919 165.5863 246.3929 15.37384396    14
STARLINK-1302           
1 45375C 20019R   26180.56993056  .00016181  00000+0  13398-3 0  1801
2 45375  53.0447 324.5399 0002321 124.0667 287.1029 15.69570772    17
STARLINK-1304           
1 45376C 20019S   26180.56645833  .00007460  00000+0  72955-4 0  1804
2 45376  53.0414 326.5153 0001737 166.2578 255.3591 15.65489159    16
STARLINK-1305           
1 45377C 20019T   26180.55395833  .00041687  00000+0  28128-3 0  1807
2 45377  53.0376 303.7358 0004807 329.0571 237.3422 15.74375306    12
STARLINK-1319           
1 45379C 20019V   26180.57895833  .00075089  00000+0  36760-3 0  1800
2 45379  53.0364 294.2716 0001857   4.7649 312.6714 15.81527532    17
STARLINK-1266           
1 45383C 20019Z   26180.64215278  .00030876  00000+0  27376-3 0  1800
2 45383  53.0447 310.7049 0002291 328.4410 265.5017 15.67899830    11
STARLINK-1267           
1 45384C 20019AA  26180.63451389  .00047349  00000+0  35187-3 0  1807
2 45384  53.0427 301.7625 0001242  45.0703  65.3274 15.72136592    18
STARLINK-1272           
1 45386C 20019AC  26180.53451389  .00052450  00000+0  31926-3 0  1804
2 45386  53.0380 280.3426 0001627  38.5535  81.5130 15.76736155    12
STARLINK-1274           
1 45387C 20019AD  26180.62756944  .00123340  00000+0  11821-2 0  1808
2 45387  53.0184 280.4116 0005100 268.4654 277.1246 15.65916727    12
STARLINK-1280           
1 45388C 20019AE  26180.55604167  .00130830  00000+0  47593-3 0  1808
2 45388  53.0336 285.8055 0004829 352.0634 234.3682 15.87671577    12
STARLINK-1283           
1 45389C 20019AF  26180.54354167  .00038934  00000+0  26321-3 0  1808
2 45389  53.0370 279.2927 0002822 316.8747 160.1649 15.74342848    11
STARLINK-1284           
1 45390C 20019AG  26180.64493056  .00050039  00000+0  36504-3 0  1806
2 45390  53.0395 302.9526 0003214  55.1998  41.4693 15.72563945    17
STARLINK-1297           
1 45395C 20019AM  26180.63243056  .00059724  00000+0  38547-3 0  1802
2 45395  53.0408 302.0221 0001547  15.7671 301.1751 15.75402467    12
STARLINK-1307           
1 45397C 20019AP  26180.60673611  .00007746  00000+0  10064-3 0  1806
2 45397  53.0527 310.3022 0000662 305.0174 268.3829 15.58169472    14
STARLINK-1255           
1 45399C 20019AR  26180.62479167  .00057539  00000+0  51141-3 0  1806
2 45399  53.0335 276.5444 0000913 207.8306 260.6769 15.67830263    10
STARLINK-1260           
1 45404C 20019AW  26180.54354167  .00013363  00000+0  32923-3 0  1800
2 45404  53.1553 326.0938 0002555 173.1700 350.9151 15.39991981    18
STARLINK-1263           
1 45405C 20019AX  26180.53381944  .00014122  00000+0  38326-3 0  1800
2 45405  53.1572 327.8571 0001672 209.3226 194.0249 15.37032338    11
STARLINK-1265           
1 45406C 20019AY  26180.59284722  .00022266  00000+0  54100-3 0  1809
2 45406  53.1549 325.7955 0000945 166.8185 340.5157 15.40411640    19
STARLINK-1278           
1 45408C 20019BA  26180.56298611  .00050708  00000+0  31351-3 0  1805
2 45408  53.0395 301.1330 0001891  35.2935 177.9888 15.76383844    13
STARLINK-1296           
1 45412C 20019BE  26180.57131944 -.00014282  00000+0 -34502-3 0  1806
2 45412  53.1555 325.5587 0001649 150.4408  32.3650 15.40603932    12
STARLINK-1309           
1 45414C 20019BG  26180.58243056  .00040341  00000+0  26520-3 0  1801
2 45414  53.0589 295.2215 0001733  34.1547  81.4712 15.74991136    14
STARLINK-1316           
1 45415C 20019BH  26180.52687500  .00019112  00000+0  45683-3 0  1805
2 45415  53.1548 325.6532 0002336 160.8769 330.7065 15.40905815    17
STARLINK-1286           
1 45417C 20019BK  26180.61437500  .00039919  00000+0  37325-3 0  1801
2 45417  53.0449 307.4526 0004187 326.6164 259.6904 15.66579421    15
STARLINK-1308           
1 45419C 20019BM  26180.53937500  .00020990  00000+0  18580-3 0  1800
2 45419  53.0458 326.9840 0005332 101.8903  31.2968 15.67929623    17
STARLINK-1329           
1 45531C 20025A   26180.56020833  .00084755  00000+0  52550-3 0  1801
2 45531  53.0392 249.3262 0003106 338.0980 222.7081 15.76297835    17
STARLINK-1338           
1 45532C 20025B   26180.58034722  .00076743  00000+0  54124-3 0  1803
2 45532  53.0432 256.5754 0002513  47.3716 143.3281 15.73344283    14
STARLINK-1350           
1 45535C 20025E   26180.59354167  .00082583  00000+0  20940-2 0  1802
2 45535  53.0700 226.5119 0001602  38.2482 289.1453 15.39082719    19
STARLINK-1362           
1 45538C 20025H   26180.54076389  .00001499  00000+0  37727-4 0  1807
2 45538  53.1565 298.1869 0003390 288.8268 292.7319 15.39350617    16
STARLINK-1368           
1 45540C 20025K   26180.54354167  .00022613  00000+0  56626-3 0  1802
2 45540  53.1568 298.5213 0002486 275.9949 256.7712 15.39494622    19
STARLINK-1371           
1 45542C 20025M   26180.53312500  .00036495  00000+0  28980-3 0  1803
2 45542  53.0423 267.1476 0002013  42.2341  77.9032 15.70565364    15
STARLINK-1372           
1 45543C 20025N   26180.56715278  .00016556  00000+0  40950-3 0  1803
2 45543  53.1570 297.8369 0001463 277.6465 291.9117 15.39874153    16
STARLINK-1373           
1 45544C 20025P   26180.61854167  .00084630  00000+0  62436-3 0  1802
2 45544  53.0440 261.5277 0002712  39.7298 313.2718 15.72284618    10
STARLINK-1327           
1 45555C 20025AA  26180.62062500  .00102650  00000+0  70512-3 0  1804
2 45555  53.0386 238.8109 0002369  50.7134   5.4161 15.73944286    19
STARLINK-1356           
1 45564C 20025AK  26180.55604167  .00054986  00000+0  50442-3 0  1805
2 45564  53.0412 252.9361 0003763  11.1011 320.1114 15.67045547    10
STARLINK-1357           
1 45565C 20025AL  26180.56923611  .00087391  00000+0  65305-3 0  1805
2 45565  53.0408 208.8661 0001322 163.1950  60.0255 15.71985274    19
STARLINK-1361           
1 45567C 20025AN  26180.61159722  .00095602  00000+0  75860-3 0  1808
2 45567  53.0405 250.8760 0002264  53.4161 296.7473 15.70553208    13
STARLINK-1376           
1 45570C 20025AR  26180.58451389  .00048425  00000+0  11769-2 0  1800
2 45570  53.1558 274.0924 0001078 286.8651 179.5369 15.40390234    12
STARLINK-1320           
1 45572C 20025AT  26180.56159722  .00167390  00000+0  43101-3 0  1805
2 45572  53.0360 144.7764 0007597  52.6003 348.0746 15.94330015    13
STARLINK-1321           
1 45573C 20025AU  26180.55465278  .00087167  00000+0  67767-3 0  1808
2 45573  53.0405 234.9679 0001991  57.5353 318.9216 15.71045961    11
STARLINK-1331           
1 45578C 20025AZ  26180.57687500  .00090603  00000+0  71216-3 0  1802
2 45578  53.0445 241.8035 0001712  53.9645 300.2337 15.70783162    17
STARLINK-1333           
1 45580C 20025BB  26180.53798611  .00024410  00000+0  65685-3 0  1803
2 45580  53.1566 276.2963 0002837 321.4265 103.6484 15.37288323    17
STARLINK-1335           
1 45581C 20025BC  26180.51993056 -.00007112  00000+0 -18042-3 0  1809
2 45581  53.1535 272.8353 0002495 266.7852  26.9569 15.39112167    17
STARLINK-1337           
1 45582C 20025BD  26180.56506944  .00119540  00000+0  69396-3 0  1806
2 45582  53.0411 229.7502 0001817  74.9368 278.8457 15.77766178    18
STARLINK-1347           
1 45586C 20025BH  26180.55534722  .00083579  00000+0  65398-3 0  1804
2 45586  53.0348 201.2776 0001781  32.9157 186.1691 15.70894500    14
STARLINK-1364           
1 45589C 20025BL  26180.61645833  .00105910  00000+0  79908-3 0  1806
2 45589  53.0398 237.5602 0003943   9.5713 213.1730 15.71739430    18
STARLINK-1365           
1 45590C 20025BM  26180.60604167  .00054415  00000+0  49592-3 0  1801
2 45590  53.0440 272.9515 0001356  38.5246 289.7176 15.67215715    16
STARLINK-1443           
1 45660C 20035D   26180.58590278  .00043496  00000+0  12872-2 0  1801
2 45660  53.1336 265.1640 0001783  28.0476 106.6854 15.34315995    10
STARLINK-1446           
1 45663C 20035G   26180.51437500  .00059640  00000+0  10835-2 0  1800
2 45663  53.0194 185.9261 0002243 340.9755 226.2884 15.48921844    13
STARLINK-1448           
1 45665C 20035J   26180.56854167  .00119130  00000+0  77761-3 0  1802
2 45665  53.0404 225.0340 0002255  59.7372 158.2277 15.75112959    15
STARLINK-1451           
1 45668C 20035M   26180.55534722 -.00000171  00000+0 -89849-5 0  1804
2 45668  53.0507 278.9300 0000762 332.8361 130.5750 15.15270011    16
STARLINK-1452           
1 45669C 20035N   26180.51993056  .00130580  00000+0  14154-2 0  1800
2 45669  53.0211 202.0073 0007738  21.1671 130.7864 15.62789342    18
STARLINK-1453           
1 45670C 20035P   26180.56159722  .00082947  00000+0  52951-3 0  1802
2 45670  53.0358 185.2786 0001880  82.3832 311.6007 15.75640399    16
STARLINK-1454           
1 45671C 20035Q   26180.55881944  .00112740  00000+0  78470-3 0  1809
2 45671  53.0407 226.5675 0001688  53.0581 315.5731 15.73634813    19
